start=new Date('2022-04-05T00:00:00.000Z').valueOf();
sats=[{"TIME_SYSTEM":"UTC","MEAN_MOTION":"15.06381565","ARG_OF_PERICENTER":"60.6403","FILE":"3388167","NORAD_CAT_ID":"47399","TLE_LINE1":"1 47399U 21005BC  22094.77936796  .00001994  00000-0  15283-3 0  9996","COUNTRY_CODE":"US","GP_ID":"200433467","TLE_LINE2":"2 47399  53.0558   3.1921 0001629  60.6403 299.4748 15.06381565 67043","MEAN_ANOMALY":"299.4748","INCLINATION":"53.0558","ELEMENT_SET_NO":"999","CLASSIFICATION_TYPE":"U","EPOCH":"2022-04-04T18:42:17.391744","OBJECT_ID":"2021-005BC","BSTAR":"0.00015283000000","MEAN_ELEMENT_THEORY":"SGP4","APOAPSIS":"548.398","OBJECT_NAME":"STARLINK-2121","PERIAPSIS":"546.142","OBJECT_TYPE":"PAYLOAD","CENTER_NAME":"EARTH","RCS_SIZE":"LARGE","DECAY_DATE":null,"SEMIMAJOR_AXIS":"6925.405","MEAN_MOTION_DOT":"0.00001994","PERIOD":"95.593","REF_FRAME":"TEME","REV_AT_EPOCH":"6704","RA_OF_ASC_NODE":"3.1921","ECCENTRICITY":"0.00016290","LAUNCH_DATE":"2021-01-20","SITE":"AFETR","EPHEMERIS_TYPE":"0","MEAN_MOTION_DDOT":"0.0000000000000"},{"OBJECT_ID":"2021-005BD","EPOCH":"2022-04-04T21:29:28.480128","BSTAR":"0.00028151000000","INCLINATION":"53.0557","MEAN_ANOMALY":"300.8446","CLASSIFICATION_TYPE":"U","ELEMENT_SET_NO":"999","TLE_LINE2":"2 47400  53.0557 342.6498 0001532  59.2694 300.8446 15.06392090 67344","GP_ID":"200437347","TLE_LINE1":"1 47400U 21005BD  22094.89546852  .00003913  00000-0  28151-3 0  9993","COUNTRY_CODE":"US","FILE":"3388357","NORAD_CAT_ID":"47400","ARG_OF_PERICENTER":"59.2694","MEAN_MOTION":"15.06392090","TIME_SYSTEM":"UTC","EPHEMERIS_TYPE":"0","SITE":"AFETR","MEAN_MOTION_DDOT":"0.0000000000000","RA_OF_ASC_NODE":"342.6498","ECCENTRICITY":"0.00015320","REV_AT_EPOCH":"6734","LAUNCH_DATE":"2021-01-20","REF_FRAME":"TEME","DECAY_DATE":null,"SEMIMAJOR_AXIS":"6925.373","PERIOD":"95.593","MEAN_MOTION_DOT":"0.00003913","OBJECT_TYPE":"PAYLOAD","RCS_SIZE":"LARGE","CENTER_NAME":"EARTH","OBJECT_NAME":"STARLINK-2122","PERIAPSIS":"546.177","APOAPSIS":"548.299","MEAN_ELEMENT_THEORY":"SGP4"},{"OBJECT_ID":"2021-005BE","EPOCH":"2022-04-04T10:47:16.150272","BSTAR":"0.00018750000000","MEAN_ANOMALY":"306.9222","INCLINATION":"53.0550","CLASSIFICATION_TYPE":"U","ELEMENT_SET_NO":"999","TLE_LINE2":"2 47401  53.0550 354.6762 0001706  53.1924 306.9222 15.06385768 67148","TLE_LINE1":"1 47401U 21005BE  22094.44949248  .00002511  00000-0  18750-3 0  9998","GP_ID":"200424263","COUNTRY_CODE":"US","FILE":"3387897","NORAD_CAT_ID":"47401","ARG_OF_PERICENTER":"53.1924","MEAN_MOTION":"15.06385768","TIME_SYSTEM":"UTC","SITE":"AFETR","EPHEMERIS_TYPE":"0","MEAN_MOTION_DDOT":"0.0000000000000","ECCENTRICITY":"0.00017060","RA_OF_ASC_NODE":"354.6762","REV_AT_EPOCH":"6714","LAUNCH_DATE":"2021-01-20","REF_FRAME":"TEME","DECAY_DATE":null,"SEMIMAJOR_AXIS":"6925.392","PERIOD":"95.593","MEAN_MOTION_DOT":"0.00002511","OBJECT_TYPE":"PAYLOAD","RCS_SIZE":"LARGE","CENTER_NAME":"EARTH","OBJECT_NAME":"STARLINK-2123","PERIAPSIS":"546.076","APOAPSIS":"548.439","MEAN_ELEMENT_THEORY":"SGP4"},{"NORAD_CAT_ID":"47402","FILE":"3388171","ARG_OF_PERICENTER":"50.3448","MEAN_MOTION":"15.06384422","TIME_SYSTEM":"UTC","BSTAR":"0.00008161200000","EPOCH":"2022-04-04T20:47:02.890752","OBJECT_ID":"2021-005BF","ELEMENT_SET_NO":"999","CLASSIFICATION_TYPE":"U","MEAN_ANOMALY":"309.7700","INCLINATION":"53.0567","TLE_LINE1":"1 47402U 21005BF  22094.86600568  .00000934  00000-0  81612-4 0  9999","COUNTRY_CODE":"US","GP_ID":"200433438","TLE_LINE2":"2 47402  53.0567 352.7908 0001803  50.3448 309.7700 15.06384422 67818","CENTER_NAME":"EARTH","RCS_SIZE":"LARGE","OBJECT_TYPE":"PAYLOAD","PERIAPSIS":"546.013","OBJECT_NAME":"STARLINK-2124","APOAPSIS":"548.510","MEAN_ELEMENT_THEORY":"SGP4","MEAN_MOTION_DDOT":"0.0000000000000","EPHEMERIS_TYPE":"0","SITE":"AFETR","LAUNCH_DATE":"2021-01-20","REV_AT_EPOCH":"6781","RA_OF_ASC_NODE":"352.7908","ECCENTRICITY":"0.00018030","REF_FRAME":"TEME","MEAN_MOTION_DOT":"0.00000934","PERIOD":"95.593","SEMIMAJOR_AXIS":"6925.396","DECAY_DATE":null},{"FILE":"3387897","NORAD_CAT_ID":"47403","ARG_OF_PERICENTER":"68.1423","MEAN_MOTION":"15.06384845","TIME_SYSTEM":"UTC","OBJECT_ID":"2021-005BG","EPOCH":"2022-04-04T09:48:52.752096","BSTAR":"0.00002317600000","MEAN_ANOMALY":"291.9718","INCLINATION":"53.0566","CLASSIFICATION_TYPE":"U","ELEMENT_SET_NO":"999","TLE_LINE2":"2 47403  53.0566 354.8508 0001435  68.1423 291.9718 15.06384845 67133","GP_ID":"200425259","TLE_LINE1":"1 47403U 21005BG  22094.40894389  .00000064  00000-0  23176-4 0  9991","COUNTRY_CODE":"US","OBJECT_TYPE":"PAYLOAD","RCS_SIZE":"LARGE","CENTER_NAME":"EARTH","OBJECT_NAME":"STARLINK-2127","PERIAPSIS":"546.266","APOAPSIS":"548.254","MEAN_ELEMENT_THEORY":"SGP4","EPHEMERIS_TYPE":"0","SITE":"AFETR","MEAN_MOTION_DDOT":"0.0000000000000","RA_OF_ASC_NODE":"354.8508","ECCENTRICITY":"0.00014350","REV_AT_EPOCH":"6713","LAUNCH_DATE":"2021-01-20","REF_FRAME":"TEME","SEMIMAJOR_AXIS":"6925.395","DECAY_DATE":null,"PERIOD":"95.593","MEAN_MOTION_DOT":"0.00000064"},{"TLE_LINE2":"2 47404  53.0562 355.7608 0001913  53.5175 306.5990 15.06373840 67109","COUNTRY_CODE":"US","TLE_LINE1":"1 47404U 21005BH  22094.20622702 -.00001018  00000-0 -49476-4 0  9991","GP_ID":"200425995","MEAN_ANOMALY":"306.5990","INCLINATION":"53.0562","CLASSIFICATION_TYPE":"U","ELEMENT_SET_NO":"999","OBJECT_ID":"2021-005BH","EPOCH":"2022-04-04T04:56:58.014528","BSTAR":"-0.00004947600000","TIME_SYSTEM":"UTC","MEAN_MOTION":"15.06373840","ARG_OF_PERICENTER":"53.5175","FILE":"3387897","NORAD_CAT_ID":"47404","DECAY_DATE":null,"SEMIMAJOR_AXIS":"6925.429","PERIOD":"95.594","MEAN_MOTION_DOT":"-0.00001018","REF_FRAME":"TEME","RA_OF_ASC_NODE":"355.7608","ECCENTRICITY":"0.00019130","REV_AT_EPOCH":"6710","LAUNCH_DATE":"2021-01-20","SITE":"AFETR","EPHEMERIS_TYPE":"0","MEAN_MOTION_DDOT":"0.0000000000000","MEAN_ELEMENT_THEORY":"SGP4","APOAPSIS":"548.619","OBJECT_NAME":"STARLINK-2128","PERIAPSIS":"545.969","OBJECT_TYPE":"PAYLOAD","RCS_SIZE":"LARGE","CENTER_NAME":"EARTH"},{"RCS_SIZE":"LARGE","CENTER_NAME":"EARTH","OBJECT_TYPE":"PAYLOAD","PERIAPSIS":"546.256","OBJECT_NAME":"STARLINK-2130","APOAPSIS":"548.256","MEAN_ELEMENT_THEORY":"SGP4","MEAN_MOTION_DDOT":"0.0000000000000","EPHEMERIS_TYPE":"0","SITE":"AFETR","LAUNCH_DATE":"2021-01-20","ECCENTRICITY":"0.00014440","RA_OF_ASC_NODE":"24.3380","REV_AT_EPOCH":"6672","REF_FRAME":"TEME","PERIOD":"95.593","MEAN_MOTION_DOT":"0.00001189","DECAY_DATE":null,"SEMIMAJOR_AXIS":"6925.391","NORAD_CAT_ID":"47405","FILE":"3388171","ARG_OF_PERICENTER":"57.6521","MEAN_MOTION":"15.06386139","TIME_SYSTEM":"UTC","BSTAR":"0.00009873100000","OBJECT_ID":"2021-005BJ","EPOCH":"2022-04-04T12:29:26.417760","CLASSIFICATION_TYPE":"U","ELEMENT_SET_NO":"999","MEAN_ANOMALY":"302.4608","INCLINATION":"53.0551","TLE_LINE2":"2 47405  53.0551  24.3380 0001444  57.6521 302.4608 15.06386139 66726","TLE_LINE1":"1 47405U 21005BJ  22094.52044465  .00001189  00000-0  98731-4 0  9996","GP_ID":"200433441","COUNTRY_CODE":"US"},{"FILE":"3387897","NORAD_CAT_ID":"47406","ARG_OF_PERICENTER":"88.5956","MEAN_MOTION":"15.06373256","TIME_SYSTEM":"UTC","OBJECT_ID":"2021-005BK","EPOCH":"2022-04-04T09:59:30.346944","BSTAR":"-0.00004243900000","MEAN_ANOMALY":"271.5205","INCLINATION":"53.0574","ELEMENT_SET_NO":"999","CLASSIFICATION_TYPE":"U","TLE_LINE2":"2 47406  53.0574 354.8169 0001497  88.5956 271.5205 15.06373256 67132","TLE_LINE1":"1 47406U 21005BK  22094.41632346 -.00000913  00000-0 -42439-4 0  9996","COUNTRY_CODE":"US","GP_ID":"200424513","OBJECT_TYPE":"PAYLOAD","RCS_SIZE":"LARGE","CENTER_NAME":"EARTH","OBJECT_NAME":"STARLINK-2133","PERIAPSIS":"546.259","APOAPSIS":"548.332","MEAN_ELEMENT_THEORY":"SGP4","SITE":"AFETR","EPHEMERIS_TYPE":"0","MEAN_MOTION_DDOT":"0.0000000000000","ECCENTRICITY":"0.00014970","RA_OF_ASC_NODE":"354.8169","REV_AT_EPOCH":"6713","LAUNCH_DATE":"2021-01-20","REF_FRAME":"TEME","DECAY_DATE":null,"SEMIMAJOR_AXIS":"6925.431","PERIOD":"95.594","MEAN_MOTION_DOT":"-0.00000913"},{"OBJECT_TYPE":"PAYLOAD","RCS_SIZE":"LARGE","CENTER_NAME":"EARTH","OBJECT_NAME":"STARLINK-2134","PERIAPSIS":"545.958","APOAPSIS":"548.607","MEAN_ELEMENT_THEORY":"SGP4","SITE":"AFETR","EPHEMERIS_TYPE":"0","MEAN_MOTION_DDOT":"0.0000000000000","RA_OF_ASC_NODE":"354.7864","ECCENTRICITY":"0.00019120","REV_AT_EPOCH":"6713","LAUNCH_DATE":"2021-01-20","REF_FRAME":"TEME","DECAY_DATE":null,"SEMIMAJOR_AXIS":"6925.418","PERIOD":"95.594","MEAN_MOTION_DOT":"-0.00001076","FILE":"3387897","NORAD_CAT_ID":"47407","ARG_OF_PERICENTER":"56.7746","MEAN_MOTION":"15.06377475","TIME_SYSTEM":"UTC","OBJECT_ID":"2021-005BL","EPOCH":"2022-04-04T10:10:07.655808","BSTAR":"-0.00005335600000","INCLINATION":"53.0563","MEAN_ANOMALY":"303.3426","CLASSIFICATION_TYPE":"U","ELEMENT_SET_NO":"999","TLE_LINE2":"2 47407  53.0563 354.7864 0001912  56.7746 303.3426 15.06377475 67134","COUNTRY_CODE":"US","TLE_LINE1":"1 47407U 21005BL  22094.42369972 -.00001076  00000-0 -53356-4 0  9991","GP_ID":"200425759"},{"PERIAPSIS":"545.977","OBJECT_NAME":"STARLINK-2135","RCS_SIZE":"LARGE","CENTER_NAME":"EARTH","OBJECT_TYPE":"PAYLOAD","MEAN_ELEMENT_THEORY":"SGP4","APOAPSIS":"548.516","LAUNCH_DATE":"2021-01-20","ECCENTRICITY":"0.00018330","RA_OF_ASC_NODE":"352.8310","REV_AT_EPOCH":"6781","MEAN_MOTION_DDOT":"0.0000000000000","SITE":"AFETR","EPHEMERIS_TYPE":"0","PERIOD":"95.593","MEAN_MOTION_DOT":"0.00003919","DECAY_DATE":null,"SEMIMAJOR_AXIS":"6925.382","REF_FRAME":"TEME","ARG_OF_PERICENTER":"62.9935","NORAD_CAT_ID":"47408","FILE":"3388171","TIME_SYSTEM":"UTC","MEAN_MOTION":"15.06389132","ELEMENT_SET_NO":"999","CLASSIFICATION_TYPE":"U","INCLINATION":"53.0566","MEAN_ANOMALY":"297.1241","BSTAR":"0.00028194000000","OBJECT_ID":"2021-005BM","EPOCH":"2022-04-04T20:36:26.222112","TLE_LINE2":"2 47408  53.0566 352.8310 0001833  62.9935 297.1241 15.06389132 67817","COUNTRY_CODE":"US","TLE_LINE1":"1 47408U 21005BM  22094.85863683  .00003919  00000-0  28194-3 0  9994","GP_ID":"200433446"}];
